AMOS-17                 
1 44479U 19050A   26066.26017090  .00000107  00000+0  00000+0 0  9994
2 44479   0.0415 291.6062 0001427  59.4123 284.5791  1.00272637 24161
