[{"OBJECT_NAME":"AMOS-17","OBJECT_ID":"2019-050A","EPOCH":"2026-03-07T06:14:38.765760","MEAN_MOTION":1.00272637,"ECCENTRICITY":0.0001427,"INCLINATION":0.0415,"RA_OF_ASC_NODE":291.6062,"ARG_OF_PERICENTER":59.4123,"MEAN_ANOMALY":284.5791,"EPHEMERIS_TYPE":0,"CLASSIFICATION_TYPE":"U","NORAD_CAT_ID":44479,"ELEMENT_SET_NO":999,"REV_AT_EPOCH":2416,"BSTAR":0,"MEAN_MOTION_DOT":1.07e-6,"MEAN_MOTION_DDOT":0}]
